STARLINK-5523           
1 56470U 23064Y   26068.54301677 -.00000663  00000+0 -47768-4 0  9994
2 56470  70.0004 124.9791 0002926 262.4662  97.6164 14.98324703155718
SATELIOT_4              
1 60537U 24149BX  26068.74229552  .00002907  00000+0  26256-3 0  9990
2 60537  97.6789 145.1106 0002390  45.2073 314.9342 14.96254023 85108
